[
  {
    "id": "stop1",
    "name": "Nha hát Đó",
    "name_en": "Do Theatre",
    "lat": 12.30003,
    "lng": 109.23643,
    "description": "Điểm đầu/cuối của nhiều tuyến xe buýt"
  },
  {
    "id": "stop2",
    "name": "Đối diện cổng Bến Du Thuyền Ana Marina",
    "name_en": "Opposite gate of Ana Marina",
    "lat": 12.29604,
    "lng": 109.22121,
    "description": "Đối diện cổng Bến Du Thuyền Ana Marina",
    "description_en": "Opposite gate of Ana Marina"
  },
  {
    "id": "stop3",
    "name": "Nhà Văn Hoá Lao Động",
    "name_en": "Social Cultural House of Labour",
    "lat": 12.28137,
    "lng": 109.20258,
    "description": "Nhà Văn Hoá Lao Động",
    "description_en": "Social Cultural House of Labour"
  },
  {
    "id": "stop4",
    "name": "Hòn Chồng",
    "name_en": "Hòn Chồng",
    "lat": 12.27244,
    "lng": 109.20367,
    "description": "Hòn Chồng",
    "description_en": "Hòn Chồng"
  },
  {
    "id": "stop5",
    "name": "Nhà hàng Yến Sào",
    "name_en": "Yen Sao Restaurant",
    "lat": 12.266224,
    "lng": 109.201720,
    "description": "Nhà hàng Yến Sào",
    "description_en": "Yen Sao Restaurant"
  },
  {
    "id": "stop6",
    "name": "Sở Tài Chính",
    "name_en": "Department of Finance",
    "lat": 12.252838,
    "lng": 109.196409,
    "description": "Sở Tài Chính",
    "description_en": "Department of Finance"
  },
  {
    "id": "stop7",
    "name": "Nha Trang Center",
    "name_en": "Nha Trang Center",
    "lat": 12.24766,
    "lng": 109.19639,
    "description": "Nha Trang Center",
    "description_en": "Nha Trang Center"
  },
  {
    "id": "stop8",
    "name": "KS The Costa",
    "name_en": "KS The Costa",
    "lat": 12.24397,
    "lng": 109.19639,
    "description": "KS The Costa",
    "description_en": "KS The Costa"
  },
  {
    "id": "stop9",
    "name": "Quảng Trường 2/4",
    "name_en": "Quang Truong 2/4",
    "lat": 12.24096,
    "lng": 109.19643,
    "description": "Quảng Trường 2/4",
    "description_en": "Quang Truong 2/4"
  },
  {
    "id": "stop10",
    "name": "KS Citadines Bayfront Nha Trang",
    "name_en": "Citadines Bayfront Nha Trang Hotel",
    "lat": 12.236317,
    "lng": 109.197034,
    "description": "KS Citadines Bayfront Nha Trang",
    "description_en": "Citadines Bayfront Nha Trang Hotel"
  },
  {
    "id": "stop11",
    "name": "Trung tâm Thương mại Vincom",
    "name_en": "Citadines Bayfront Nha Trang Hotel",
    "lat": 12.23275,
    "lng": 109.19781,
    "description": "KS Citadines Bayfront Nha Trang",
    "description_en": "Citadines Bayfront Nha Trang Hotel"
  },
  {
    "id": "stop12",
    "name": "Ana Beach House",
    "name_en": "Ana Beach House",
    "lat": 12.22466,
    "lng": 109.20123,
    "description": "Ana Beach House",
    "description_en": "Ana Beach House"
  },
  {
    "id": "stop13",
    "name": "KS Imperial (đối diện công viên Thanh Niên)",
    "name_en": "KS Imperial (opposite Youth Park)",
    "lat": 12.21998,
    "lng": 109.2039,
    "description": "KS Imperial (đối diện công viên Thanh Niên)",
    "description_en": "KS Imperial (opposite Youth Park)"
  },
  {
    "id": "stop14",
    "name": "VinPearl Nha Trang",
    "name_en": "Vinpearl Nha Trang",
    "lat": 12.20265,
    "lng": 109.21602,
    "description": "VinPearl Nha Trang",
    "description_en": "Vinpearl Nha Trang"
  },
  {
    "id": "stop15",
    "name": "Đối diện số 14 đường Hoàng Diệu",
    "name_en": "Opposite number 14 Hoang Dieu street",
    "lat": 12.22076,
    "lng": 109.20053,
    "description": "Đối diện số 14 đường Hoàng Diệu",
    "description_en": "Opposite number 14 Hoang Dieu street"
  },
  {
    "id": "stop16",
    "name": "Đối diện số 17A đường Nguyễn Đức Cảnh",
    "name_en": "Opposite number 17A Nguyen Duc Canh street",
    "lat": 12.21594,
    "lng": 109.19391,
    "description": "Đối diện số 17A đường Nguyễn Đức Cảnh",
    "description_en": "Opposite number 17A Nguyen Duc Canh street"
  },
  {
    "id": "stop17",
    "name": "Siêu thị Điện Máy Xanh Phước Đồng",
    "name_en": "Electrical Store Xanh Phước Đồng",
    "lat": 12.19277,
    "lng": 109.17254,
    "description": "Siêu thị Điện Máy Xanh Phước Đồng",
    "description_en": "Electrical Store Xanh Phước Đồng"
  },
  {
    "id": "stop18",
    "name": "Diamond Bay Resort",
    "name_en": "Diamond Bay Resort",
    "lat": 12.16458,
    "lng": 109.19732,
    "description": "Diamond Bay Resort",
    "description_en": "Diamond Bay Resort"
  },
  {
    "id": "stop19",
    "name": "Aquamarine Cam Ranh Resort",
    "name_en": "Aquamarine Cam Ranh Resort",
    "lat": 12.10329,
    "lng": 109.18858,
    "description": "Aquamarine Cam Ranh Resort",
    "description_en": "Aquamarine Cam Ranh Resort"
  },
  {
    "id": "stop20",
    "name": "The Anam Cam Ranh Resort",
    "name_en": "The Anam Cam Ranh Resort",
    "lat": 12.09987,
    "lng": 109.18851,
    "description": "The Anam Cam Ranh Resort",
    "description_en": "The Anam Cam Ranh Resort"
  },
  {
    "id": "stop21",
    "name": "Riviera Cam Ranh Resort",
    "name_en": "Riviera Cam Ranh Resort",
    "lat": 12.09654,
    "lng": 109.18844,
    "description": "Riviera Cam Ranh Resort",
    "description_en": "Riviera Cam Ranh Resort"
  },
  {
    "id": "stop22",
    "name": "Selectum Noa Cam Ranh Resort",
    "name_en": "Selectum Noa Cam Ranh Resort",
    "lat": 12.086734,
    "lng": 109.188319,
    "description": "Selectum Noa Cam Ranh Resort",
    "description_en": "Selectum Noa Cam Ranh Resort"
  },
  {
    "id": "stop23",
    "name": "Meliá Vinpearl Cam Ranh Resort",
    "name_en": "Meliá Vinpearl Cam Ranh Resort",
    "lat": 12.07649,
    "lng": 109.19158,
    "description": "Meliá Vinpearl Cam Ranh Resort",
    "description_en": "Meliá Vinpearl Cam Ranh Resort"
  },
  {
    "id": "stop24",
    "name": "Alma Cam Ranh Resort",
    "name_en": "Alma Cam Ranh Resort",
    "lat": 12.073310,
    "lng": 109.193019,
    "description": "Alma Cam Ranh Resort",
    "description_en": "Alma Cam Ranh Resort"
  },
  {
    "id": "stop25",
    "name": "Duyen Ha Cam Ranh Resort",
    "name_en": "Duyen Ha Cam Ranh Resort",
    "lat": 12.054619,
    "lng": 109.19848,
    "description": "Duyen Ha Cam Ranh Resort",
    "description_en": "Duyen Ha Cam Ranh Resort"
  },
  {
    "id": "stop26",
    "name": "Mövenpick Cam Ranh Resort",
    "name_en": "Mövenpick Cam Ranh Resort",
    "lat": 12.04476,
    "lng": 109.20548,
    "description": "Mövenpick Cam Ranh Resort",
    "description_en": "Mövenpick Cam Ranh Resort"
  },
  {
    "id": "stop27",
    "name": "Swandor Cam Ranh Resort",
    "name_en": "Swandor Cam Ranh Resort",
    "lat": 12.03548,
    "lng": 109.20966,
    "description": "Swandor Cam Ranh Resort",
    "description_en": "Swandor Cam Ranh Resort"
  },
  {
    "id": "stop28",
    "name": "Khách sạn WyndHam Garden Cam Ranh",
    "name_en": "WyndHam Garden Cam Ranh Hotel",
    "lat": 12.03011,
    "lng": 109.21174,
    "description": "Khách sạn WyndHam Garden Cam Ranh",
    "description_en": "WyndHam Garden Cam Ranh Hotel"
  },
  {
    "id": "stop29",
    "name": "The Arena Cam Ranh Resort",
    "name_en": "The Arena Cam Ranh Resort",
    "lat": 12.02356,
    "lng": 109.21445,
    "description": "The Arena Cam Ranh Resort",
    "description_en": "The Arena Cam Ranh Resort"
  },
  {
    "id": "stop30",
    "name": "Ga Quốc Nội sân bay Cam Ranh",
    "name_en": "Cam Ranh International Airport",
    "lat": 12.00752,
    "lng": 109.21552,
    "description": "Ga Quốc Nội sân bay Cam Ranh",
    "description_en": "Cam Ranh International Airport"
  },
  {
    "id": "stop31",
    "name": "UBND Vĩnh Trường",
    "name_en": "UBND Vĩnh Trường",
    "lat": 12.20581,
    "lng": 109.20315,
    "description": "UBND Vĩnh Trường",
    "description_en": "UBND Vĩnh Trường"
  },
  {
    "id": "stop32",
    "name": "Trường Tiểu Học Diên Sơn 2",
    "name_en": "Diên Sơn 2 Primary School",
    "lat": 12.26877,
    "lng": 109.10038,
    "description": "Trường Tiểu Học Diên Sơn 2",
    "description_en": "Diên Sơn 2 Primary School"
  },
  {
    "id": "stop33",
    "name": "Trường Trung học phổ thông Phạm Văn Đông",
    "name_en": "Pham Van Dong High School",
    "lat": 12.21322,
    "lng": 109.19995,
    "description": "Trường Trung học phổ thông Phạm Văn Đông",
    "description_en": "Pham Van Dong High School"
  },
  {
    "id": "stop34",
    "name": "Mã Vòng",
    "name_en": "Horse Park",
    "lat": 12.2497,
    "lng": 109.18134,
    "description": "Mã Vòng",
    "description_en": "Horse Park"
  },
  {
    "id": "stop35",
    "name": "Cầu Dứa",
    "name_en": "Dua Bridge",
    "lat": 12.256115,
    "lng": 109.158493,
    "description": "Cầu Dứa",
    "description_en": "Dua Bridge"
  },
  {
    "id": "stop36",
    "name": "MM Mega Market",
    "name_en": "MM Mega Market",
    "lat": 12.257409,
    "lng": 109.134284,
    "description": "MM Mega Market",
    "description_en": "MM Mega Market"
  },
  {
    "id": "stop37",
    "name": "Cây Dầu đôi",
    "name_en": "Dau Doi Tree",
    "lat": 12.25715,
    "lng": 109.10837,
    "description": "Cây Dầu đôi",
    "description_en": "Dau Doi Tree"
  },
  {
    "id": "stop38",
    "name": "Thông Tin",
    "name_en": "Thông Tin",
    "lat": 12.252571,
    "lng": 109.1902,
    "description": "Thông Tin",
    "description_en": "Thông Tin"
  },
  {
    "id": "stop39",
    "name": "Quang Trung - Yersin",
    "name_en": "Quang Trung - Yersin",
    "lat": 12.250002,
    "lng": 109.190674,
    "description": "Vòng xoay Quang Trung - Yersin",
    "description_en": "Quang Trung - Yersin roundabout"
  },
  {
    "id": "stop40",
    "name": "Quang Trung - Sacombank",
    "name_en": "Quang Trung - Sacombank",
    "lat": 12.248424,
    "lng": 109.191045,
    "description": "Quang Trung - Sacombank",
    "description_en": "Quang Trung - Sacombank"
  }
] 